STARLINK-1614
1 16124C 20057H   21326.06984860  .00002164  00000-0  14495-3 0  3269
2 16124  53.0535 118.4346 0001670  76.7714 314.4380 15.06405033    14
